#dP2024  9 28  0  0  0.00000000      97 __u+U IGS20 FIT  IAC
## 2333 518400.00000000   900.00000000 60581 0.0000000000000
+  119   C06C07C08C09C10C11C12C13C14C16C19C20C21C22C23C24C25
+        C26C27C28C29C30C32C33C34C35C36C37C38C39C40C41C42C43
+        C44C45E02E03E04E05E06E07E08E09E10E11E12E13E14E15E18
+        E19E21E24E25E26E27E29E30E31E33E34E36G01G02G03G04G05
+        G06G07G08G09G10G11G12G13G14G15G16G17G18G19G20G21G22
+        G23G24G25G26G27G28G29G30G32J02J03J04R01R02R03R04R05
+        R07R08R09R11R12R14R15R16R17R18R19R20R21R22R24R25R26
++         7  7  7  7  7  7  7  7  7  7  6  5  6  6  6  6  5
++         6  6  6  5  5  5  5  6  6  5  6  6  6  6  6  6  6
++         6  6  5  4  4  4  4  4  4  4  4  4  4  4  4  4  4
++         4  4  4  4  4  4  4  5  4  4  4  4  3  3  3  3  3
++         4  3  3  3  3  3  3  3  3  3  3  3  3  4  3  3  3
++         3  3  3  3  3  3  3  3  4 11 11 11  8  7  7  7  7
++         7  6  6  6  6  7  7  7  7  6  7  8  7  7  6  7  7
%c M  cc GPS ccc cccc cccc cccc cccc ccccc ccccc ccccc ccccc
%c cc cc ccc ccc cccc cccc cccc cccc ccccc ccccc ccccc ccccc
%f  1.2500000  1.025000000  0.00000000000  0.000000000000000
%f  0.0000000  0.000000000  0.00000000000  0.000000000000000
%i    0    0    0    0      0      0      0      0         0
%i    0    0    0    0      0      0      0      0         0
/* INFORMATION & ANALYSIS CENTER (IAC)            FINAL DATA
/* S/V CLOCKS ARE ALIGNED TO GNSS TIME                      
/* G:C1WC2W R:C1PC2P E:C1XC5X C:C2IC6I J:C1CC2S             
/* PCV:IGS20_2317 OL/AL:FES2004  NONE     YN ORB:CoN CLK:CoN
*  2024 09 28 11 15  0.00000000
PC06 -12879.392159  24703.721506  31656.164445    267.911225
PC07 -12004.339467  40471.628990   2801.254195   -334.941500
PC08   1267.762285  27918.850998 -31492.031071   -595.260041
PC09  -4415.181802  24804.264771  34229.399834   -397.502258
PC10  -6618.186747  41809.948274  -3262.585867   -200.802837
PC11  -3131.114713  18079.873052 -20955.778256    784.096805
PC12 -20271.665152  17821.058629  -7065.578455   -262.624781
PC13   8083.759001  31913.770177 -25983.740633    431.667598
PC14   2133.966962  27828.032973   1217.964061   -249.375360
PC16 -18172.466880  23586.778098  30023.334912   -837.286104
PC19  -7964.820960 -24711.103359 -10189.981927   -941.590673
PC20   3047.122770 -26993.372546   6323.141275   -944.296029
PC21 -13386.148894  13037.158573 -20732.285835   -926.769967
PC22 -15160.800271  -8085.536849 -21999.964762    136.135462
PC23  25567.704238  10786.129965  -2902.313466   -844.780605
PC24  -4399.203792  15973.551387  22440.106198    815.947599
PC25  15270.883652  18641.481934  14043.484406    518.330314
PC26 -21034.092539   4102.790927  17874.980114   -355.154298
PC27  24218.473208 -13737.518733  -1898.209589    375.028632
PC28  22927.390411  -1310.405197 -15841.655496    290.767496
PC29  -6761.246360 -14806.251456  22665.442689    341.425063
PC30  12906.534723 -20633.563318  13660.657897   -220.882965
PC32  13345.084952 -12965.206084  20797.085358   -748.667676
PC33   8080.018194  24741.796887  10076.965589   -963.803060
PC34 -11283.316880  20666.697220 -14977.589019    530.821142
PC35 -22633.423866   1601.024901  16214.739337    249.390331
PC36 -15334.435059 -18907.082349 -13635.673908    192.238779
PC37  21132.553550  -3608.842768 -17839.514940   -895.545004
PC38  -7020.048161  23993.886159 -33872.917011    182.037491
PC39 -22867.348926  23579.124617  26361.579014     -9.990281
PC40 -18357.802420  37821.682122   5003.891593    -93.692901
PC41  15091.827355   9121.370735  21675.156824   -904.462378
PC42  -4127.690355  26419.217804  -8004.719971   -484.440995
PC43   5842.256554  15482.342492 -22476.495925     87.211901
PC44 -23683.154268  14598.238607   2010.297808    606.610108
PC45 -25443.710312 -11234.934932   2447.847483   -138.931876
PE02 -14714.971147   8209.290971  24336.295260    162.781699
PE03 -20658.171514  17771.101899 -11585.464150   -143.358497
PE04  10618.569869 -26627.363288  -7371.282785    -43.991456
PE05 -18285.678985  -1325.825311 -23243.821953   4788.159308
PE06   2682.429623 -24998.792393 -15645.997671    -30.497484
PE07   4937.302977  20011.572052  21245.461843   -144.466240
PE08 -11273.047071  26562.037805   6620.291213   -342.795732
PE09  -4782.484953 -19983.267326 -21308.126973   -606.230886
PE10  -3823.250160 -15962.873913  24630.887104   -659.634279
PE11 -15529.214896 -14121.543627  20863.299219   1486.858987
PE12   7079.621227 -15397.226354  24268.807970  -1229.145390
PE13  14948.126906  14220.438591 -21217.909374    -25.222607
PE14  -6873.284576 -16168.426728  16803.911010    256.392831
PE15  -7843.191954  15194.423039 -24154.047462   -129.846265
PE18   3229.476464  25227.391177 -19092.174339    597.996056
PE19  21004.545291 -16145.225727  13202.918622    692.500986
PE21  20287.143155  12115.547331 -17822.895644   -619.383923
PE24 -13955.680293 -26112.094225    465.722320  -1012.565581
PE25 -20288.930934 -12541.070197  17540.165312      9.555633
PE26  28713.716954   4670.518301  -5427.266119   -256.311854
PE27  14098.979738  26014.787443   -594.443737   -464.014041
PE29  18592.262169   1001.799161  23002.692320    -33.572132
PE30   -388.497982  24426.147959  16701.886355   -763.336864
PE31    302.339454 -24403.303545 -16741.244720    -37.403704
PE33  25904.800677  -6982.909737  12492.426457     15.571826
PE34 -25656.712177   7279.796601 -12862.348580   -136.924815
PE36 -28562.608099  -4979.472829   5974.296884   -289.569978
PG01 -14457.174969   5246.512643  21298.744794    185.807249
PG02   8191.410443  13582.393778 -20889.644943   -348.609439
PG03  12644.278652  23358.414344  -1942.860688    552.947847
PG04   4027.638008  18483.910053  18597.211070    451.966584
PG05  -1471.435559 -21189.064596  15722.205238   -188.060256
PG06  24836.499937  -5441.679657   7938.309900     -0.253712
PG07  23247.803812   7576.911424  11441.940580    -32.897902
PG08  -4180.672550  24133.942404  -9819.063975    367.388605
PG09  12434.407431   8947.181643  21599.484974    375.576940
PG10 -16405.872493   -515.895671 -20745.146699   -140.087131
PG11  13642.454071 -12759.622207  18889.814793   -739.216330
PG12  -8673.129484 -24623.322872  -5294.314580   -541.318181
PG13  13164.004824 -22557.254732  -4290.927876    678.819675
PG14  18258.701041   4292.544760 -18844.504659    505.621079
PG15    615.274088 -24563.385358 -10393.391607    209.475115
PG16  -4679.771428  18573.760715  17864.070212   -169.078804
PG17  18623.930610  -7725.038499 -16960.134816    613.049143
PG18 -23785.794391  -6671.864795  10077.919997   -655.707011
PG19  19199.512653 -14343.013598 -11123.430996    543.791113
PG20   7264.324767 -14378.190104  21209.617738    370.192498
PG21   2190.042055  14852.399185 -21502.473280    100.869661
PG22  14551.323851  -4308.013469 -21369.840589    -66.156174
PG23 -19069.163041 -13144.683881 -13171.040872    330.007896
PG24  -6012.421123 -15199.827002 -21426.797054   -486.106972
PG25 -17198.466822 -19558.153164   5533.431243    499.620201
PG26 -13131.783164   8791.827290  21190.198423     68.638577
PG27 -12374.885768  23234.008471      6.945762    -34.135858
PG28 -25465.220583   5247.371361   5425.468872   -427.258157
PG29  -9854.451730 -11958.373433  21515.235861   -574.939606
PG30  26682.650376    200.161272   1242.086499   -312.804523
PG32 -18131.499736   9615.912124 -16531.665757   -592.665223
PJ02 -26624.147002  24289.666388  27016.657008     -1.132393
PJ03 -34581.115579  17295.647636 -12183.853592     -3.701402
PJ04 -20389.212722  31736.341834 -13826.861460     22.137368
PR01  10505.176628 -13193.700891  19127.879511     99.253455
PR02   5929.346800 -24332.139597   5077.765343    -24.888239
PR03  -2727.187268 -22284.276104 -12132.735327    108.405652
PR04  -9220.830811  -8178.760980 -22313.603588    256.793009
PR05 -11108.328011  10219.287166 -20549.862536    138.331066
PR07   3032.748187  21886.992458  12728.392277     91.811439
PR08   9516.984880   7777.220651  22398.595157     -6.417181
PR09  -1098.613053  12711.133088  22122.294443    211.646576
PR11  21140.204107  13854.203904  -3500.086954     10.669470
PR12  16187.401846    480.310114 -19676.823784     45.373602
PR14 -13941.281930 -17688.049059 -11941.996474     26.975830
PR15 -21271.443256 -13053.704057   5274.292347     75.411869
PR16 -16210.454316   -630.778783  19683.308530     29.509904
PR17  -4629.669958  -9597.055194  23188.911342    125.972129
PR18 -18975.404015   -896.164449  17022.183368    164.264887
PR19 -24301.360122   6710.880005   3939.148186   -292.972895
PR20 -14780.714912  12893.975326 -16278.068365   -119.724950
PR21   3617.248973   9908.711874 -23220.233466   -138.252493
PR22  19857.410594    855.432193 -15961.022241     35.675279
PR24  13562.675623 -13913.784143  16531.580051    -73.841585
PR25   4680.228042   9925.936280 -23017.599274    -96.831357
PR26   9093.787880   9455.331337  21893.833209     47.325562
EOF
